{
  "norad_id": 58610,
  "name": "STARLINK-31089",
  "history": [
    {
      "epoch": "2026-04-14T21:15:26.730720Z",
      "apogee_km": 486.53305811462633,
      "perigee_km": 484.5645530255879,
      "latitude_deg": 2.340797699813302e-05,
      "longitude_deg": 162.70882320726466,
      "height_km": 485.4129215347871,
      "semi_major_axis_km": 6863.685805570107,
      "eccentricity": 0.0001434,
      "inclination_deg": 43.0023,
      "raan_deg": 324.6259,
      "arg_perigee_deg": 264.925,
      "mean_anomaly_deg": 95.1438,
      "mean_motion_rev_day": 15.26745574
    },
    {
      "epoch": "2026-04-15T20:48:33.806016Z",
      "apogee_km": 486.5751932444682,
      "perigee_km": 484.52020604539484,
      "latitude_deg": -4.3509839516496346e-05,
      "longitude_deg": 162.92672850925666,
      "height_km": 485.4743888365189,
      "semi_major_axis_km": 6863.684699644931,
      "eccentricity": 0.0001497,
      "inclination_deg": 43.0022,
      "raan_deg": 319.0906,
      "arg_perigee_deg": 261.6276,
      "mean_anomaly_deg": 98.4405,
      "mean_motion_rev_day": 15.26745943
    },
    {
      "epoch": "2026-04-16T20:21:41.124096Z",
      "apogee_km": 486.67839062344046,
      "perigee_km": 484.40514021633317,
      "latitude_deg": -4.28940772776143e-05,
      "longitude_deg": 163.14439141892305,
      "height_km": 485.48490336650076,
      "semi_major_axis_km": 6863.678765419886,
      "eccentricity": 0.0001656,
      "inclination_deg": 43.0024,
      "raan_deg": 313.556,
      "arg_perigee_deg": 261.6066,
      "mean_anomaly_deg": 98.4597,
      "mean_motion_rev_day": 15.26747923
    },
    {
      "epoch": "2026-04-17T21:29:00.915072Z",
      "apogee_km": 486.67294664307883,
      "perigee_km": 484.43565782620135,
      "latitude_deg": -1.1086758737003102e-05,
      "longitude_deg": 139.37723363855707,
      "height_km": 485.47610795298345,
      "semi_major_axis_km": 6863.69130223464,
      "eccentricity": 0.00016298,
      "inclination_deg": 43.0028,
      "raan_deg": 307.653,
      "arg_perigee_deg": 262.5754,
      "mean_anomaly_deg": 97.4912,
      "mean_motion_rev_day": 15.2674374
    },
    {
      "epoch": "2026-04-18T21:02:07.744128Z",
      "apogee_km": 486.6893643006724,
      "perigee_km": 484.40787520066715,
      "latitude_deg": -2.3591058596455496e-05,
      "longitude_deg": 139.59642398002183,
      "height_km": 485.4043951755028,
      "semi_major_axis_km": 6863.6856197506695,
      "eccentricity": 0.0001662,
      "inclination_deg": 43.0027,
      "raan_deg": 302.1179,
      "arg_perigee_deg": 266.0546,
      "mean_anomaly_deg": 94.0115,
      "mean_motion_rev_day": 15.26745636
    },
    {
      "epoch": "2026-04-19T20:35:16.164672Z",
      "apogee_km": 486.6298376555551,
      "perigee_km": 484.55287345516444,
      "latitude_deg": -2.8687495224347554e-05,
      "longitude_deg": 139.80927167148843,
      "height_km": 485.4437944272003,
      "semi_major_axis_km": 6863.7283555553595,
      "eccentricity": 0.0001513,
      "inclination_deg": 43.0028,
      "raan_deg": 296.5831,
      "arg_perigee_deg": 265.8441,
      "mean_anomaly_deg": 94.2237,
      "mean_motion_rev_day": 15.26731377
    },
    {
      "epoch": "2026-04-19T20:35:16.165536Z",
      "apogee_km": 486.6299062928383,
      "perigee_km": 484.5528048178803,
      "latitude_deg": -2.790340282321935e-05,
      "longitude_deg": 139.80926889774088,
      "height_km": 485.44379940068893,
      "semi_major_axis_km": 6863.7283555553595,
      "eccentricity": 0.00015131,
      "inclination_deg": 43.0028,
      "raan_deg": 296.5831,
      "arg_perigee_deg": 265.8441,
      "mean_anomaly_deg": 94.2237,
      "mean_motion_rev_day": 15.26731377
    },
    {
      "epoch": "2026-04-21T19:41:29.294016Z",
      "apogee_km": 486.10748268001953,
      "perigee_km": 484.9941925127614,
      "latitude_deg": -6.916720280146101e-06,
      "longitude_deg": 140.24910670280087,
      "height_km": 485.6076394817126,
      "semi_major_axis_km": 6863.68783759639,
      "eccentricity": 8.11e-05,
      "inclination_deg": 43.0028,
      "raan_deg": 285.5121,
      "arg_perigee_deg": 239.7579,
      "mean_anomaly_deg": 120.3192,
      "mean_motion_rev_day": 15.26744896
    },
    {
      "epoch": "2026-04-22T17:39:45.337824Z",
      "apogee_km": 484.54194958743847,
      "perigee_km": 483.36441491216465,
      "latitude_deg": 3.345039208110114e-07,
      "longitude_deg": 164.61044100626526,
      "height_km": 483.9851840425163,
      "semi_major_axis_km": 6862.090182249802,
      "eccentricity": 8.58e-05,
      "inclination_deg": 43.0016,
      "raan_deg": 280.3426,
      "arg_perigee_deg": 244.2622,
      "mean_anomaly_deg": 115.8141,
      "mean_motion_rev_day": 15.2727812
    },
    {
      "epoch": "2026-04-22T17:39:45.338688Z",
      "apogee_km": 484.54194958743847,
      "perigee_km": 483.36441491216465,
      "latitude_deg": 3.3450426180914234e-07,
      "longitude_deg": 164.6105373964098,
      "height_km": 483.98518404251433,
      "semi_major_axis_km": 6862.090182249802,
      "eccentricity": 8.58e-05,
      "inclination_deg": 43.0016,
      "raan_deg": 280.3427,
      "arg_perigee_deg": 244.2622,
      "mean_anomaly_deg": 115.8141,
      "mean_motion_rev_day": 15.2727812
    },
    {
      "epoch": "2026-04-24T20:00:01.999008Z",
      "apogee_km": 484.1292111429193,
      "perigee_km": 482.1902086926975,
      "latitude_deg": 18.526283299665796,
      "longitude_deg": 136.57149829903975,
      "height_km": 482.8761267053547,
      "semi_major_axis_km": 6861.296709917809,
      "eccentricity": 0.0001413,
      "inclination_deg": 43.0016,
      "raan_deg": 268.5028,
      "arg_perigee_deg": 268.0297,
      "mean_anomaly_deg": 119.6388,
      "mean_motion_rev_day": 15.2754306
    },
    {
      "epoch": "2026-04-25T20:00:01.000224Z",
      "apogee_km": 484.06156364076287,
      "perigee_km": 482.0800468266116,
      "latitude_deg": 29.827694126600125,
      "longitude_deg": -108.6865897002055,
      "height_km": 484.37944999168184,
      "semi_major_axis_km": 6861.207805233687,
      "eccentricity": 0.0001444,
      "inclination_deg": 43.0016,
      "raan_deg": 262.8552,
      "arg_perigee_deg": 273.5603,
      "mean_anomaly_deg": 219.8307,
      "mean_motion_rev_day": 15.2757275
    },
    {
      "epoch": "2026-04-26T17:23:19.630464Z",
      "apogee_km": 484.29078255413515,
      "perigee_km": 481.7344554290903,
      "latitude_deg": -4.922546945055284e-06,
      "longitude_deg": 142.26251139694125,
      "height_km": 483.0871896784368,
      "semi_major_axis_km": 6861.149618991612,
      "eccentricity": 0.00018629,
      "inclination_deg": 43.0019,
      "raan_deg": 257.8189,
      "arg_perigee_deg": 256.5466,
      "mean_anomaly_deg": 103.5178,
      "mean_motion_rev_day": 15.27592182
    },
    {
      "epoch": "2026-04-27T18:29:49.206624Z",
      "apogee_km": 484.2561587888431,
      "perigee_km": 481.7696780584056,
      "latitude_deg": 3.850364025900276e-05,
      "longitude_deg": 118.70016671658257,
      "height_km": 483.1956666823308,
      "semi_major_axis_km": 6861.149918423624,
      "eccentricity": 0.0001812,
      "inclination_deg": 43.0027,
      "raan_deg": 251.9109,
      "arg_perigee_deg": 250.9612,
      "mean_anomaly_deg": 109.1044,
      "mean_motion_rev_day": 15.27592082
    },
    {
      "epoch": "2026-04-28T14:53:52.850112Z",
      "apogee_km": 483.94786670627855,
      "perigee_km": 482.2394202760488,
      "latitude_deg": 3.83522571561748e-06,
      "longitude_deg": 167.04650938164252,
      "height_km": 483.1832235893342,
      "semi_major_axis_km": 6861.230643491163,
      "eccentricity": 0.0001245,
      "inclination_deg": 43.0033,
      "raan_deg": 247.1103,
      "arg_perigee_deg": 248.5228,
      "mean_anomaly_deg": 111.5491,
      "mean_motion_rev_day": 15.27565123
    },
    {
      "epoch": "2026-04-29T14:26:13.530336Z",
      "apogee_km": 484.12024656048925,
      "perigee_km": 482.0344374005281,
      "latitude_deg": -5.000549718247048e-05,
      "longitude_deg": 167.4520692142364,
      "height_km": 483.4407033055469,
      "semi_major_axis_km": 6861.214341980509,
      "eccentricity": 0.000152,
      "inclination_deg": 43.0023,
      "raan_deg": 241.5688,
      "arg_perigee_deg": 235.7734,
      "mean_anomaly_deg": 124.2973,
      "mean_motion_rev_day": 15.27570567
    },
    {
      "epoch": "2026-04-30T13:58:34.557024Z",
      "apogee_km": 483.84737728649725,
      "perigee_km": 482.3372207177881,
      "latitude_deg": 1.7319232200492227e-05,
      "longitude_deg": 167.85771010831584,
      "height_km": 483.3584904991563,
      "semi_major_axis_km": 6861.229299002142,
      "eccentricity": 0.00011005,
      "inclination_deg": 42.9999,
      "raan_deg": 236.0287,
      "arg_perigee_deg": 229.5325,
      "mean_anomaly_deg": 130.5431,
      "mean_motion_rev_day": 15.27565572
    },
    {
      "epoch": "2026-05-02T08:20:45.911040Z",
      "apogee_km": 484.07692136694095,
      "perigee_km": 481.94722069529234,
      "latitude_deg": -1.8518814585437584e-06,
      "longitude_deg": -119.39868775125642,
      "height_km": 483.4696019257074,
      "semi_major_axis_km": 6861.149071031116,
      "eccentricity": 0.0001552,
      "inclination_deg": 43.0028,
      "raan_deg": 226.0597,
      "arg_perigee_deg": 230.2583,
      "mean_anomaly_deg": 129.8132,
      "mean_motion_rev_day": 15.27592365
    },
    {
      "epoch": "2026-05-03T15:43:55.277760Z",
      "apogee_km": 484.26138720483414,
      "perigee_km": 481.8915240772558,
      "latitude_deg": -3.5582522611277624e-05,
      "longitude_deg": 121.14147029861242,
      "height_km": 483.1596830116676,
      "semi_major_axis_km": 6861.213455641045,
      "eccentricity": 0.0001727,
      "inclination_deg": 43.0036,
      "raan_deg": 218.6779,
      "arg_perigee_deg": 255.0369,
      "mean_anomaly_deg": 105.0291,
      "mean_motion_rev_day": 15.27570863
    }
  ]
}